0 SL-14 DEB
1 19174U 78100R   13281.64133791  .00000078  00000-0  63420-3 0  9787
2 19174 081.9033 136.4971 0152425 356.3779 059.7939 12.21689753132897
0 SL-14 DEB
1 19174U 78100R   13289.91389130  .00000065  00000-0  52564-3 0  9801
2 19174 081.9021 131.1624 0152120 339.3446 083.1526 12.21691429133904
0 SL-14 DEB
1 19174U 78100R   13291.98370314  .00000037  00000-0  26352-3 0  9811
2 19174 081.9025 129.8280 0152055 335.0739 186.3596 12.21691670134154
0 SL-14 DEB
1 19174U 78100R   13295.01258998  .00000108  00000-0  91816-3 0  9829
2 19174 081.9033 127.8747 0151958 328.8094 187.6946 12.21691860134529
